LEMUR-2-ARIANNA         
1 62699U 25009CU  26095.20428774  .00010792  00000+0  84038-3 0  9998
2 62699  97.6917 177.2643 0003939 100.0168 260.1501 15.01399753 66609
LEMUR-2-ALISIA          
1 62706U 25009DB  26095.46311066  .00011138  00000+0  86104-3 0  9991
2 62706  97.6932 178.1957 0005299 102.1542 258.0276 15.01665099 89242
LEMUR-2-ROUNDTRIPPER    
1 62711U 25009DG  26095.20337910  .00012137  00000+0  91379-3 0  9995
2 62711  97.7246 178.0612 0004748  50.0857 310.0784 15.02650887 66666
LEMUR-2-MYNAMEISJEFF    
1 62712U 25009DH  26095.20181440  .00011557  00000+0  87045-3 0  9991
2 62712  97.7286 178.3969 0004169  80.0524 280.1171 15.02651288 66663
LEMUR-2-LEIA-PHILIP     
1 63246U 25052AN  26095.42218171  .00007632  00000+0  66769-3 0  9997
2 63246  97.6903 348.5804 0004957 106.2776 253.8991 14.97003608 57785
LEMUR-2-LIA-MARTIN      
1 63248U 25052AQ  26095.24011730  .00007666  00000+0  66794-3 0  9996
2 63248  97.6963 348.7900 0004844  80.9928 279.1842 14.97160450 57767
LEMUR-2-DELOITTE-1      
1 63259U 25052BB  26095.61073404  .00005077  00000+0  44513-3 0  9994
2 63259  97.6996 349.4761 0002036  38.5088 321.6279 14.97085982 57836
LEMUR-2-EMERSONROSE     
1 63261U 25052BD  26095.45717335  .00006891  00000+0  57982-3 0  9996
2 63261  97.6986 349.7345 0001431  60.8050 299.3315 14.98561288 57846
LEMUR-2-MARACHE-FRAN    
1 63262U 25052BE  26095.60827469  .00007257  00000+0  59828-3 0  9992
2 63262  97.6982 350.1100 0001138 331.1841  28.9319 14.99334880 57885
LEMUR-2-THEFALCONER     
1 63264U 25052BG  26095.42658076  .00007220  00000+0  63437-3 0  9991
2 63264  97.6930 348.9918 0000954 210.8065 149.3101 14.96858635 57803
LEMUR-2-UNTITLED-SC     
1 63351U 25061A   26095.34954952  .00006289  00000+0  35868-3 0  9992
2 63351  97.5593  71.2963 0019743 151.7025 208.5283 15.12960530 56574
LEMUR-2-ESPERANZA       
1 63352U 25061B   26095.39714872  .00005684  00000+0  32387-3 0  9994
2 63352  97.5605  71.4205 0019416 150.4573 209.7760 15.13044672 56586
LEMUR-2-KREMPEL-BRO2    
1 63353U 25061C   26095.44471319  .00004951  00000+0  27912-3 0  9991
2 63353  97.5650  71.9085 0020595 143.4731 216.7909 15.13469200 56600
LEMUR-2-THERMORAPTOR    
1 63354U 25061D   26095.49637330  .00005378  00000+0  30234-3 0  9999
2 63354  97.5653  72.0222 0020270 142.5625 217.7023 15.13533806 56614
LEMUR-2-NEUROSPICY      
1 63355U 25061E   26095.47348934  .00006079  00000+0  34053-3 0  9999
2 63355  97.5584  71.6824 0017996 145.6506 214.5892 15.13649390 56619
LEMUR-2-TILLINFINITY    
1 63356U 25061F   26095.40471968  .00006252  00000+0  34420-3 0  9998
2 63356  97.5571  71.8537 0019522 134.9973 225.2845 15.14228192 56627
