[{"OBJECT_NAME":"LEMUR-2-ARIANNA","OBJECT_ID":"2025-009CU","EPOCH":"2026-04-05T04:54:10.460736","MEAN_MOTION":15.01399753,"ECCENTRICITY":0.00039395,"INCLINATION":97.6917,"RA_OF_ASC_NODE":177.2643,"ARG_OF_PERICENTER":100.0168,"MEAN_ANOMALY":260.1501,"EPHEMERIS_TYPE":0,"CLASSIFICATION_TYPE":"U","NORAD_CAT_ID":62699,"ELEMENT_SET_NO":999,"REV_AT_EPOCH":6660,"BSTAR":0.00084037716,"MEAN_MOTION_DOT":0.00010792,"MEAN_MOTION_DDOT":0},{"OBJECT_NAME":"LEMUR-2-ALISIA","OBJECT_ID":"2025-009DB","EPOCH":"2026-04-05T11:06:52.761024","MEAN_MOTION":15.01665099,"ECCENTRICITY":0.00052999,"INCLINATION":97.6932,"RA_OF_ASC_NODE":178.1957,"ARG_OF_PERICENTER":102.1542,"MEAN_ANOMALY":258.0276,"EPHEMERIS_TYPE":0,"CLASSIFICATION_TYPE":"U","NORAD_CAT_ID":62706,"ELEMENT_SET_NO":999,"REV_AT_EPOCH":8924,"BSTAR":0.00086103868,"MEAN_MOTION_DOT":0.00011138,"MEAN_MOTION_DDOT":0},{"OBJECT_NAME":"LEMUR-2-ROUNDTRIPPER","OBJECT_ID":"2025-009DG","EPOCH":"2026-04-05T04:52:51.954240","MEAN_MOTION":15.02650887,"ECCENTRICITY":0.00047489,"INCLINATION":97.7246,"RA_OF_ASC_NODE":178.0612,"ARG_OF_PERICENTER":50.0857,"MEAN_ANOMALY":310.0784,"EPHEMERIS_TYPE":0,"CLASSIFICATION_TYPE":"U","NORAD_CAT_ID":62711,"ELEMENT_SET_NO":999,"REV_AT_EPOCH":6666,"BSTAR":0.00091378885,"MEAN_MOTION_DOT":0.00012137,"MEAN_MOTION_DDOT":0},{"OBJECT_NAME":"LEMUR-2-MYNAMEISJEFF","OBJECT_ID":"2025-009DH","EPOCH":"2026-04-05T04:50:36.764160","MEAN_MOTION":15.02651288,"ECCENTRICITY":0.0004169,"INCLINATION":97.7286,"RA_OF_ASC_NODE":178.3969,"ARG_OF_PERICENTER":80.0524,"MEAN_ANOMALY":280.1171,"EPHEMERIS_TYPE":0,"CLASSIFICATION_TYPE":"U","NORAD_CAT_ID":62712,"ELEMENT_SET_NO":999,"REV_AT_EPOCH":6666,"BSTAR":0.00087045205,"MEAN_MOTION_DOT":0.00011557,"MEAN_MOTION_DDOT":0},{"OBJECT_NAME":"LEMUR-2-LEIA-PHILIP","OBJECT_ID":"2025-052AN","EPOCH":"2026-04-05T10:07:56.499744","MEAN_MOTION":14.97003608,"ECCENTRICITY":0.00049573,"INCLINATION":97.6903,"RA_OF_ASC_NODE":348.5804,"ARG_OF_PERICENTER":106.2776,"MEAN_ANOMALY":253.8991,"EPHEMERIS_TYPE":0,"CLASSIFICATION_TYPE":"U","NORAD_CAT_ID":63246,"ELEMENT_SET_NO":999,"REV_AT_EPOCH":5778,"BSTAR":0.00066768577,"MEAN_MOTION_DOT":7.632e-5,"MEAN_MOTION_DDOT":0},{"OBJECT_NAME":"LEMUR-2-LIA-MARTIN","OBJECT_ID":"2025-052AQ","EPOCH":"2026-04-05T05:45:46.134720","MEAN_MOTION":14.9716045,"ECCENTRICITY":0.0004844,"INCLINATION":97.6963,"RA_OF_ASC_NODE":348.79,"ARG_OF_PERICENTER":80.9928,"MEAN_ANOMALY":279.1842,"EPHEMERIS_TYPE":0,"CLASSIFICATION_TYPE":"U","NORAD_CAT_ID":63248,"ELEMENT_SET_NO":999,"REV_AT_EPOCH":5776,"BSTAR":0.00066794,"MEAN_MOTION_DOT":7.666e-5,"MEAN_MOTION_DDOT":0},{"OBJECT_NAME":"LEMUR-2-DELOITTE-1","OBJECT_ID":"2025-052BB","EPOCH":"2026-04-05T14:39:27.421056","MEAN_MOTION":14.97085982,"ECCENTRICITY":0.00020367,"INCLINATION":97.6996,"RA_OF_ASC_NODE":349.4761,"ARG_OF_PERICENTER":38.5088,"MEAN_ANOMALY":321.6279,"EPHEMERIS_TYPE":0,"CLASSIFICATION_TYPE":"U","NORAD_CAT_ID":63259,"ELEMENT_SET_NO":999,"REV_AT_EPOCH":5783,"BSTAR":0.0004451284,"MEAN_MOTION_DOT":5.077e-5,"MEAN_MOTION_DDOT":0},{"OBJECT_NAME":"LEMUR-2-EMERSONROSE","OBJECT_ID":"2025-052BD","EPOCH":"2026-04-05T10:58:19.777440","MEAN_MOTION":14.98561288,"ECCENTRICITY":0.00014312,"INCLINATION":97.6986,"RA_OF_ASC_NODE":349.7345,"ARG_OF_PERICENTER":60.805,"MEAN_ANOMALY":299.3315,"EPHEMERIS_TYPE":0,"CLASSIFICATION_TYPE":"U","NORAD_CAT_ID":63261,"ELEMENT_SET_NO":999,"REV_AT_EPOCH":5784,"BSTAR":0.00057982065,"MEAN_MOTION_DOT":6.891e-5,"MEAN_MOTION_DDOT":0},{"OBJECT_NAME":"LEMUR-2-MARACHE-FRAN","OBJECT_ID":"2025-052BE","EPOCH":"2026-04-05T14:35:54.933216","MEAN_MOTION":14.9933488,"ECCENTRICITY":0.00011381,"INCLINATION":97.6982,"RA_OF_ASC_NODE":350.11,"ARG_OF_PERICENTER":331.1841,"MEAN_ANOMALY":28.9319,"EPHEMERIS_TYPE":0,"CLASSIFICATION_TYPE":"U","NORAD_CAT_ID":63262,"ELEMENT_SET_NO":999,"REV_AT_EPOCH":5788,"BSTAR":0.00059828369,"MEAN_MOTION_DOT":7.257e-5,"MEAN_MOTION_DDOT":0},{"OBJECT_NAME":"LEMUR-2-THEFALCONER","OBJECT_ID":"2025-052BG","EPOCH":"2026-04-05T10:14:16.577664","MEAN_MOTION":14.96858635,"ECCENTRICITY":9.54e-5,"INCLINATION":97.693,"RA_OF_ASC_NODE":348.9918,"ARG_OF_PERICENTER":210.8065,"MEAN_ANOMALY":149.3101,"EPHEMERIS_TYPE":0,"CLASSIFICATION_TYPE":"U","NORAD_CAT_ID":63264,"ELEMENT_SET_NO":999,"REV_AT_EPOCH":5780,"BSTAR":0.00063437,"MEAN_MOTION_DOT":7.22e-5,"MEAN_MOTION_DDOT":0},{"OBJECT_NAME":"LEMUR-2-UNTITLED-SC","OBJECT_ID":"2025-061A","EPOCH":"2026-04-05T08:23:21.078528","MEAN_MOTION":15.1296053,"ECCENTRICITY":0.00197433,"INCLINATION":97.5593,"RA_OF_ASC_NODE":71.2963,"ARG_OF_PERICENTER":151.7025,"MEAN_ANOMALY":208.5283,"EPHEMERIS_TYPE":0,"CLASSIFICATION_TYPE":"U","NORAD_CAT_ID":63351,"ELEMENT_SET_NO":999,"REV_AT_EPOCH":5657,"BSTAR":0.00035868081,"MEAN_MOTION_DOT":6.289e-5,"MEAN_MOTION_DDOT":0},{"OBJECT_NAME":"LEMUR-2-ESPERANZA","OBJECT_ID":"2025-061B","EPOCH":"2026-04-05T09:31:53.649408","MEAN_MOTION":15.13044672,"ECCENTRICITY":0.00194165,"INCLINATION":97.5605,"RA_OF_ASC_NODE":71.4205,"ARG_OF_PERICENTER":150.4573,"MEAN_ANOMALY":209.776,"EPHEMERIS_TYPE":0,"CLASSIFICATION_TYPE":"U","NORAD_CAT_ID":63352,"ELEMENT_SET_NO":999,"REV_AT_EPOCH":5658,"BSTAR":0.00032386692,"MEAN_MOTION_DOT":5.684e-5,"MEAN_MOTION_DDOT":0},{"OBJECT_NAME":"LEMUR-2-KREMPEL-BRO2","OBJECT_ID":"2025-061C","EPOCH":"2026-04-05T10:40:23.219616","MEAN_MOTION":15.134692,"ECCENTRICITY":0.0020595,"INCLINATION":97.565,"RA_OF_ASC_NODE":71.9085,"ARG_OF_PERICENTER":143.4731,"MEAN_ANOMALY":216.7909,"EPHEMERIS_TYPE":0,"CLASSIFICATION_TYPE":"U","NORAD_CAT_ID":63353,"ELEMENT_SET_NO":999,"REV_AT_EPOCH":5660,"BSTAR":0.00027911792,"MEAN_MOTION_DOT":4.951e-5,"MEAN_MOTION_DDOT":0},{"OBJECT_NAME":"LEMUR-2-THERMORAPTOR","OBJECT_ID":"2025-061D","EPOCH":"2026-04-05T11:54:46.653120","MEAN_MOTION":15.13533806,"ECCENTRICITY":0.00202701,"INCLINATION":97.5653,"RA_OF_ASC_NODE":72.0222,"ARG_OF_PERICENTER":142.5625,"MEAN_ANOMALY":217.7023,"EPHEMERIS_TYPE":0,"CLASSIFICATION_TYPE":"U","NORAD_CAT_ID":63354,"ELEMENT_SET_NO":999,"REV_AT_EPOCH":5661,"BSTAR":0.00030234283,"MEAN_MOTION_DOT":5.378e-5,"MEAN_MOTION_DDOT":0},{"OBJECT_NAME":"LEMUR-2-NEUROSPICY","OBJECT_ID":"2025-061E","EPOCH":"2026-04-05T11:21:49.478976","MEAN_MOTION":15.1364939,"ECCENTRICITY":0.00179969,"INCLINATION":97.5584,"RA_OF_ASC_NODE":71.6824,"ARG_OF_PERICENTER":145.6506,"MEAN_ANOMALY":214.5892,"EPHEMERIS_TYPE":0,"CLASSIFICATION_TYPE":"U","NORAD_CAT_ID":63355,"ELEMENT_SET_NO":999,"REV_AT_EPOCH":5661,"BSTAR":0.00034053062,"MEAN_MOTION_DOT":6.079e-5,"MEAN_MOTION_DDOT":0},{"OBJECT_NAME":"LEMUR-2-TILLINFINITY","OBJECT_ID":"2025-061F","EPOCH":"2026-04-05T09:42:47.780352","MEAN_MOTION":15.14228192,"ECCENTRICITY":0.00195224,"INCLINATION":97.5571,"RA_OF_ASC_NODE":71.8537,"ARG_OF_PERICENTER":134.9973,"MEAN_ANOMALY":225.2845,"EPHEMERIS_TYPE":0,"CLASSIFICATION_TYPE":"U","NORAD_CAT_ID":63356,"ELEMENT_SET_NO":999,"REV_AT_EPOCH":5662,"BSTAR":0.00034420285,"MEAN_MOTION_DOT":6.252e-5,"MEAN_MOTION_DDOT":0}]
